{
    "links": {
        "self": "http://www.neowsapp.com/rest/v1/neo/3989075?api_key=iIulBulltgU6a56xZRHN4H3l9WmuAYTsLGpBGhQ2"
    },
    "id": "3989075",
    "neo_reference_id": "3989075",
    "name": "(2020 BK4)",
    "designation": "2020 BK4",
    "nasa_jpl_url": "http://ssd.jpl.nasa.gov/sbdb.cgi?sstr=3989075",
    "absolute_magnitude_h": 22.788,
    "estimated_diameter": {
        "kilometers": {
            "estimated_diameter_min": 0.0736130779,
            "estimated_diameter_max": 0.1646038462
        },
        "meters": {
            "estimated_diameter_min": 73.6130778718,
            "estimated_diameter_max": 164.6038461543
        },
        "miles": {
            "estimated_diameter_min": 0.0457410318,
            "estimated_diameter_max": 0.1022800565
        },
        "feet": {
            "estimated_diameter_min": 241.5127304049,
            "estimated_diameter_max": 540.038882617
        }
    },
    "is_potentially_hazardous_asteroid": false,
    "close_approach_data": [
        {
            "close_approach_date": "1989-01-03",
            "close_approach_date_full": "1989-Jan-03 06:58",
            "epoch_date_close_approach": 599813880000,
            "relative_velocity": {
                "kilometers_per_second": "16.1778386832",
                "kilometers_per_hour": "58240.2192594473",
                "miles_per_hour": "36188.2073504049"
            },
            "miss_distance": {
                "astronomical": "0.1326491789",
                "lunar": "51.6005305921",
                "kilometers": "19844034.620688943",
                "miles": "12330511.3398876934"
            },
            "orbiting_body": "Earth"
        },
        {
            "close_approach_date": "2019-11-12",
            "close_approach_date_full": "2019-Nov-12 03:16",
            "epoch_date_close_approach": 1573528560000,
            "relative_velocity": {
                "kilometers_per_second": "10.5057455137",
                "kilometers_per_hour": "37820.6838492541",
                "miles_per_hour": "23500.3021395546"
            },
            "miss_distance": {
                "astronomical": "0.1790073212",
                "lunar": "69.6338479468",
                "kilometers": "26779113.965925844",
                "miles": "16639769.8220468872"
            },
            "orbiting_body": "Earth"
        },
        {
            "close_approach_date": "2141-08-04",
            "close_approach_date_full": "2141-Aug-04 00:40",
            "epoch_date_close_approach": 5414863200000,
            "relative_velocity": {
                "kilometers_per_second": "21.9822436558",
                "kilometers_per_hour": "79136.0771610485",
                "miles_per_hour": "49172.0808337637"
            },
            "miss_distance": {
                "astronomical": "0.3125705373",
                "lunar": "121.5899390097",
                "kilometers": "46759886.604835551",
                "miles": "29055246.2265745638"
            },
            "orbiting_body": "Earth"
        },
        {
            "close_approach_date": "2144-01-21",
            "close_approach_date_full": "2144-Jan-21 10:05",
            "epoch_date_close_approach": 5492657100000,
            "relative_velocity": {
                "kilometers_per_second": "24.41328955",
                "kilometers_per_hour": "87887.8423798481",
                "miles_per_hour": "54610.0873943006"
            },
            "miss_distance": {
                "astronomical": "0.3917496436",
                "lunar": "152.3906113604",
                "kilometers": "58604912.255819132",
                "miles": "36415403.8710507416"
            },
            "orbiting_body": "Earth"
        }
    ],
    "orbital_data": {
        "orbit_id": "5",
        "orbit_determination_date": "2020-02-14 04:58:54",
        "first_observation_date": "2020-01-21",
        "last_observation_date": "2020-02-14",
        "data_arc_in_days": 24,
        "observations_used": 25,
        "orbit_uncertainty": "8",
        "minimum_orbit_intersection": ".0123185",
        "jupiter_tisserand_invariant": "4.038",
        "epoch_osculation": "2458871.5",
        "eccentricity": ".5200760126190426",
        "semi_major_axis": "1.697840928478024",
        "inclination": "4.405280935380012",
        "ascending_node_longitude": "158.1209120394239",
        "orbital_period": "808.0605871010116",
        "perihelion_distance": ".8148345883337602",
        "perihelion_argument": "235.3290325517638",
        "aphelion_distance": "2.580847268622288",
        "perihelion_time": "2458788.323408379308",
        "mean_anomaly": "37.0560988389179",
        "mean_motion": ".4455111482315103",
        "equinox": "J2000",
        "orbit_class": {
            "orbit_class_type": "APO",
            "orbit_class_description": "Near-Earth asteroid orbits which cross the Earth’s orbit similar to that of 1862 Apollo",
            "orbit_class_range": "a (semi-major axis) > 1.0 AU; q (perihelion) < 1.017 AU"
        }
    },
    "is_sentry_object": false
}